NORAD_CAT_ID,OBJECT_NAME,OBJECT_TYPE,EPOCH,MEAN_MOTION,ECCENTRICITY,INCLINATION,RA_OF_ASC_NODE,ARG_OF_PERICENTER,MEAN_ANOMALY,BSTAR,MEAN_MOTION_DOT,MEAN_MOTION_DDOT,TLE_LINE0,TLE_LINE1,TLE_LINE2,SEMIMAJOR_AXIS,PERIOD,APOGEE,PERIGEE,DECAYED
52633.0,STARLINK-3994,PAYLOAD,2024-01-28 14:19:00,15.08838061,0.0001792,53.2171,130.6955,74.8258,285.2932,8.4021e-05,1.049e-05,0.0,0 STARLINK-3994,1 52633U 22052AM  24028.59653837  .00001049  00000-0  84021-4 0  9995,2 52633  53.2171 130.6955 0001792  74.8258 285.2932 15.08838061 94590,6917.886,95.438,540.991,538.512,0.0
52633.0,STARLINK-3994,PAYLOAD,2024-01-29 10:59:01,15.08849462,0.0001646,53.2168,126.8295,77.2407,282.8769,0.00024838,3.668e-05,0.0,0 STARLINK-3994,1 52633U 22052AM  24029.45765356  .00003668  00000-0  24838-3 0  9999,2 52633  53.2168 126.8295 0001646  77.2407 282.8769 15.08849462 95095,6917.851,95.437,540.855,538.578,0.0
52633.0,STARLINK-3994,PAYLOAD,2024-01-29 12:34:24,15.0884943,0.0001757,53.216,126.5323,69.0452,291.0728,0.0003103,4.655e-05,0.0,0 STARLINK-3994,1 52633U 22052AM  24029.52389448  .00004655  00000-0  31030-3 0  9990,2 52633  53.2160 126.5323 0001757  69.0452 291.0728 15.08849430 94730,6917.852,95.437,540.932,538.501,0.0
52633.0,STARLINK-3994,PAYLOAD,2024-01-30 12:25:11,15.0884462,0.00018,53.2163,122.0716,71.6077,288.5111,0.00019216,2.772e-05,0.0,0 STARLINK-3994,1 52633U 22052AM  24030.51749748  .00002772  00000-0  19216-3 0  9994,2 52633  53.2163 122.0716 0001800  71.6077 288.5111 15.08844620 95252,6917.866,95.437,540.976,538.486,0.0
52633.0,STARLINK-3994,PAYLOAD,2024-01-30 15:35:57,15.08848984,0.0001547,53.2161,121.4754,85.0783,275.0386,0.00025218,3.729e-05,0.0,0 STARLINK-3994,1 52633U 22052AM  24030.64997428  .00003729  00000-0  25218-3 0  9990,2 52633  53.2161 121.4754 0001547  85.0783 275.0386 15.08848984 94909,6917.853,95.437,540.788,538.648,0.0
52633.0,STARLINK-3994,PAYLOAD,2024-01-31 10:40:35,15.0884519,0.0001742,53.2176,117.9038,109.5436,250.5744,8.4152e-05,1.052e-05,0.0,0 STARLINK-3994,1 52633U 22052AM  24031.44485355  .00001052  00000-0  84152-4 0  9990,2 52633  53.2176 117.9038 0001742 109.5436 250.5744 15.08845190 95390,6917.865,95.437,540.935,538.524,0.0
52633.0,STARLINK-3994,PAYLOAD,2024-02-01 12:06:45,15.08842155,0.0001608,53.2173,113.1443,100.3604,259.7569,0.00012283,1.667e-05,0.0,0 STARLINK-3994,1 52633U 22052AM  24032.50469509  .00001667  00000-0  12283-3 0  9998,2 52633  53.2173 113.1443 0001608 100.3604 259.7569 15.08842155 95554,6917.874,95.437,540.851,538.626,0.0
52633.0,STARLINK-3994,PAYLOAD,2024-02-02 11:57:32,15.08842215,0.0001706,53.2177,108.6896,108.512,251.6057,8.836e-05,1.119e-05,0.0,0 STARLINK-3994,1 52633U 22052AM  24033.49829453  .00001119  00000-0  88360-4 0  9997,2 52633  53.2177 108.6896 0001706 108.5120 251.6057 15.08842215 95337,6917.874,95.437,540.919,538.558,0.0
52633.0,STARLINK-3994,PAYLOAD,2024-02-02 15:08:18,15.08842785,0.0001581,53.2182,108.0903,102.0838,258.0331,0.00010812,1.433e-05,0.0,0 STARLINK-3994,1 52633U 22052AM  24033.63077455  .00001433  00000-0  10812-3 0  9995,2 52633  53.2182 108.0903 0001581 102.0838 258.0331 15.08842785 95723,6917.872,95.437,540.831,538.643,0.0
52633.0,STARLINK-3994,PAYLOAD,2024-02-03 10:12:57,15.088376,0.0001506,53.2175,104.5207,98.2746,261.8417,2.3918e-05,9.3e-07,0.0,0 STARLINK-3994,1 52633U 22052AM  24034.42566130  .00000093  00000-0  23918-4 0  9999,2 52633  53.2175 104.5207 0001506  98.2746 261.8417 15.08837600 95844,6917.888,95.438,540.795,538.711,0.0
52633.0,STARLINK-3994,PAYLOAD,2024-02-04 11:39:07,15.08819622,0.0001593,53.2168,99.7627,95.9227,264.1946,0.00050708,7.787e-05,0.0,0 STARLINK-3994,1 52633U 22052AM  24035.48550357  .00007787  00000-0  50708-3 0  9993,2 52633  53.2168  99.7627 0001593  95.9227 264.1946 15.08819622 96007,6917.943,95.439,540.91,538.706,0.0
52633.0,STARLINK-3994,PAYLOAD,2024-02-05 11:29:54,15.08841272,0.0001758,53.2181,95.3094,69.9773,290.1408,0.00013709,1.894e-05,0.0,0 STARLINK-3994,1 52633U 22052AM  24036.47910297  .00001894  00000-0  13709-3 0  9999,2 52633  53.2181  95.3094 0001758  69.9773 290.1408 15.08841272 96156,6917.877,95.437,540.958,538.525,0.0
52633.0,STARLINK-3994,PAYLOAD,2024-02-06 03:23:46,15.08809344,0.0001935,53.2182,92.3384,75.8882,284.2326,0.00053341,8.204e-05,0.0,0 STARLINK-3994,1 52633U 22052AM  24037.14150688  .00008204  00000-0  53341-3 0  9992,2 52633  53.2182  92.3384 0001935  75.8882 284.2326 15.08809344 96258,6917.974,95.439,541.178,538.5,0.0
52633.0,STARLINK-3994,PAYLOAD,2024-02-06 09:45:18,15.08842272,0.00021,53.2183,91.1474,63.8745,296.2463,4.806e-05,4.77e-06,0.0,0 STARLINK-3994,1 52633U 22052AM  24037.40646605  .00000477  00000-0  48060-4 0  9997,2 52633  53.2183  91.1474 0002100  63.8745 296.2463 15.08842272 96292,6917.873,95.437,541.191,538.286,0.0
52633.0,STARLINK-3994,PAYLOAD,2024-02-07 09:36:04,15.0885294,0.0001575,53.2175,86.6843,95.2864,264.8308,2.3349e-06,-2.51e-06,0.0,0 STARLINK-3994,1 52633U 22052AM  24038.40005698 -.00000251  00000-0  23349-5 0  9994,2 52633  53.2175  86.6843 0001575  95.2864 264.8308 15.08852940 96447,6917.841,95.437,540.795,538.616,0.0
52633.0,STARLINK-3994,PAYLOAD,2024-02-07 20:43:47,15.08838975,0.000153,53.2165,84.6023,96.8881,263.2285,0.00015901,2.243e-05,0.0,0 STARLINK-3994,1 52633U 22052AM  24038.86374134  .00002243  00000-0  15901-3 0  9993,2 52633  53.2165  84.6023 0001530  96.8881 263.2285 15.08838975 96147,6917.884,95.438,540.807,538.69,0.0
52633.0,STARLINK-3994,PAYLOAD,2024-02-08 03:05:20,15.08839054,0.0001824,53.2178,83.4128,101.0875,259.0322,3.91e-05,3.34e-06,0.0,0 STARLINK-3994,1 52633U 22052AM  24039.12870437  .00000334  00000-0  39100-4 0  9997,2 52633  53.2178  83.4128 0001824 101.0875 259.0322 15.08839054 96551,6917.883,95.438,541.01,538.486,0.0
52633.0,STARLINK-3994,PAYLOAD,2024-02-08 09:26:52,15.08842075,0.0001866,53.2179,82.2225,103.7933,256.3267,3.9521e-05,3.41e-06,0.0,0 STARLINK-3994,1 52633U 22052AM  24039.39366247  .00000341  00000-0  39521-4 0  9990,2 52633  53.2179  82.2225 0001866 103.7933 256.3267 15.08842075 96226,6917.874,95.437,541.03,538.448,0.0
52633.0,STARLINK-3994,PAYLOAD,2024-02-09 07:42:16,15.08839293,0.0001848,53.2179,78.0595,105.0885,255.0311,2.8655e-05,1.68e-06,0.0,0 STARLINK-3994,1 52633U 22052AM  24040.32102499  .00000168  00000-0  28655-4 0  9995,2 52633  53.2179  78.0595 0001848 105.0885 255.0311 15.08839293 96730,6917.883,95.438,541.026,538.469,0.0
52633.0,STARLINK-3994,PAYLOAD,2024-02-09 12:28:25,15.08845277,0.0001738,53.2175,77.1663,103.1447,256.9739,3.4562e-05,2.62e-06,0.0,0 STARLINK-3994,1 52633U 22052AM  24040.51974095  .00000262  00000-0  34562-4 0  9994,2 52633  53.2175  77.1663 0001738 103.1447 256.9739 15.08845277 96398,6917.864,95.437,540.932,538.527,0.0
52633.0,STARLINK-3994,PAYLOAD,2024-02-10 01:11:31,15.08831417,0.0002091,53.2171,74.7855,108.2328,251.8892,1.4202e-05,-6.2e-07,0.0,0 STARLINK-3994,1 52633U 22052AM  24041.04967243 -.00000062  00000-0  14202-4 0  9998,2 52633  53.2171  74.7855 0002091 108.2328 251.8892 15.08831417 96842,6917.907,95.438,541.218,538.325,0.0
52633.0,STARLINK-3994,PAYLOAD,2024-02-10 09:08:27,15.08834212,0.0001698,53.2179,73.3017,96.8816,263.2369,3.4868e-05,2.67e-06,0.0,0 STARLINK-3994,1 52633U 22052AM  24041.38087222  .00000267  00000-0  34868-4 0  9991,2 52633  53.2179  73.3017 0001698  96.8816 263.2369 15.08834212 96528,6917.898,95.438,540.938,538.588,0.0
52633.0,STARLINK-3994,PAYLOAD,2024-02-11 07:23:51,15.08840597,0.0001725,53.2182,69.1389,105.8438,254.2745,4.9796e-05,5.05e-06,0.0,0 STARLINK-3994,1 52633U 22052AM  24042.30823064  .00000505  00000-0  49796-4 0  9997,2 52633  53.2182  69.1389 0001725 105.8438 254.2745 15.08840597 97037,6917.879,95.438,540.937,538.55,0.0
52633.0,STARLINK-3994,PAYLOAD,2024-02-12 10:25:23,15.0885454,0.0001676,53.2183,64.0823,95.0845,265.0338,0.00022117,3.235e-05,0.0,0 STARLINK-3994,1 52633U 22052AM  24043.43429984  .00003235  00000-0  22117-3 0  9995,2 52633  53.2183  64.0823 0001676  95.0845 265.0338 15.08854540 97202,6917.836,95.437,540.86,538.542,0.0
52633.0,STARLINK-3994,PAYLOAD,2024-02-13 10:16:11,15.08837589,0.0001593,53.2177,59.6171,80.312,279.8052,2.3549e-05,8.7e-07,0.0,0 STARLINK-3994,1 52633U 22052AM  24044.42791368  .00000087  00000-0  23549-4 0  9996,2 52633  53.2177  59.6171 0001593  80.3120 279.8052 15.08837589 97358,6917.888,95.438,540.855,538.651,0.0
52633.0,STARLINK-3994,PAYLOAD,2024-02-13 18:13:07,15.08839322,0.0001493,53.2173,58.1344,86.3892,273.7271,5.3528e-05,5.64e-06,0.0,0 STARLINK-3994,1 52633U 22052AM  24044.75911398  .00000564  00000-0  53528-4 0  9999,2 52633  53.2173  58.1344 0001493  86.3892 273.7271 15.08839322 97039,6917.882,95.438,540.78,538.715,0.0
52633.0,STARLINK-3994,PAYLOAD,2024-02-14 06:56:11,15.08851217,0.0001234,53.2157,55.7544,100.8068,259.3063,0.00011325,1.515e-05,0.0,0 STARLINK-3994,1 52633U 22052AM  24045.28902679  .00001515  00000-0  11325-3 0  9995,2 52633  53.2157  55.7544 0001234 100.8068 259.3063 15.08851217 97481,6917.846,95.437,540.565,538.857,0.0
52633.0,STARLINK-3994,PAYLOAD,2024-02-14 18:03:54,15.08840032,0.0001406,53.2173,53.6726,99.4295,260.6856,0.00016038,2.265e-05,0.0,0 STARLINK-3994,1 52633U 22052AM  24045.75271164  .00002265  00000-0  16038-3 0  9994,2 52633  53.2173  53.6726 0001406  99.4295 260.6856 15.08840032 97550,6917.88,95.438,540.718,538.773,0.0
52633.0,STARLINK-3994,PAYLOAD,2024-02-15 09:57:46,15.08836908,0.0001554,53.2183,50.6987,92.5524,267.5646,8.5157e-05,1.067e-05,0.0,0 STARLINK-3994,1 52633U 22052AM  24046.41511791  .00001067  00000-0  85157-4 0  9999,2 52633  53.2183  50.6987 0001554  92.5524 267.5646 15.08836908 97651,6917.89,95.438,540.83,538.68,0.0
52633.0,STARLINK-3994,PAYLOAD,2024-02-16 06:37:46,15.08854924,0.0001604,53.2181,46.8336,92.2887,267.8289,0.0002014,2.92e-05,0.0,0 STARLINK-3994,1 52633U 22052AM  24047.27622944  .00002920  00000-0  20140-3 0  9996,2 52633  53.2181  46.8336 0001604  92.2887 267.8289 15.08854924 97787,6917.835,95.437,540.809,538.59,0.0
